ORBCOMM FM20            
1 25416U 98046D   25099.85442896  .00001806  00000+0  65066-3 0  9996
2 25416  44.9924 144.8403 0002871 269.7004  90.3514 14.37032022394431
ORBCOMM FM16            
1 25417U 98046E   25099.93000062  .00002709  00000+0  92127-3 0  9992
2 25417  44.9919 136.9348 0006322 297.4379  62.5826 14.38659603394421
ORBCOMM FM15            
1 25418U 98046F   25099.81995238  .00002266  00000+0  78352-3 0  9990
2 25418  44.9952 142.3992 0005835 295.7413  64.2833 14.38315338394402
ORBCOMM FM14            
1 25419U 98046G   25099.85459754  .00002366  00000+0  81048-3 0  9990
2 25419  44.9940 140.6645 0004945 287.7524  72.2785 14.38656754394372
ORBCOMM FM13            
1 25420U 98046H   25099.84092828  .00001944  00000+0  69029-3 0  9992
2 25420  44.9955 148.0527 0006986 283.4719  76.5350 14.37466473393401
ORBCOMM FM21            
1 25475U 98053A   25099.83236277  .00002330  00000+0  82326-3 0  9992
2 25475  45.0070 233.1596 0002550 221.0519 139.0138 14.37175996387412
ORBCOMM FM22            
1 25476U 98053B   25099.63989365  .00002730  00000+0  93749-3 0  9999
2 25476  45.0063 229.4641 0004460 227.9241 132.1228 14.38155318387762
ORBCOMM FM23            
1 25477U 98053C   25099.70233898  .00002524  00000+0  88494-3 0  9993
2 25477  45.0069 235.9898 0003579 221.7392 138.3184 14.37332244387543
