<?xml version="1.0" encoding="UTF-8"?>
<ndm xmlns:xsi="http://www.w3.org/2001/XMLSchema-instance" xsi:noNamespaceSchemaLocation="https://sanaregistry.org/r/ndmxml_unqualified/ndmxml-2.0.0-master-2.0.xsd">
<omm id="CCSDS_OMM_VERS" version="2.0">
<header><CREATION_DATE/><ORIGINATOR/></header><body><segment><metadata><OBJECT_NAME>ORBCOMM FM20</OBJECT_NAME><OBJECT_ID>1998-046D</OBJECT_ID><CENTER_NAME>EARTH</CENTER_NAME><REF_FRAME>TEME</REF_FRAME><TIME_SYSTEM>UTC</TIME_SYSTEM><MEAN_ELEMENT_THEORY>SGP4</MEAN_ELEMENT_THEORY></metadata><data><meanElements><EPOCH>2025-04-09T20:30:22.662144</EPOCH><MEAN_MOTION>14.37032022</MEAN_MOTION><ECCENTRICITY>.0002871</ECCENTRICITY><INCLINATION>44.9924</INCLINATION><RA_OF_ASC_NODE>144.8403</RA_OF_ASC_NODE><ARG_OF_PERICENTER>269.7004</ARG_OF_PERICENTER><MEAN_ANOMALY>90.3514</MEAN_ANOMALY></meanElements><tleParameters><EPHEMERIS_TYPE>0</EPHEMERIS_TYPE><CLASSIFICATION_TYPE>U</CLASSIFICATION_TYPE><NORAD_CAT_ID>25416</NORAD_CAT_ID><ELEMENT_SET_NO>999</ELEMENT_SET_NO><REV_AT_EPOCH>39443</REV_AT_EPOCH><BSTAR>.65066E-3</BSTAR><MEAN_MOTION_DOT>.1806E-4</MEAN_MOTION_DOT><MEAN_MOTION_DDOT>0</MEAN_MOTION_DDOT></tleParameters></data></segment></body></omm>
<omm id="CCSDS_OMM_VERS" version="2.0">
<header><CREATION_DATE/><ORIGINATOR/></header><body><segment><metadata><OBJECT_NAME>ORBCOMM FM16</OBJECT_NAME><OBJECT_ID>1998-046E</OBJECT_ID><CENTER_NAME>EARTH</CENTER_NAME><REF_FRAME>TEME</REF_FRAME><TIME_SYSTEM>UTC</TIME_SYSTEM><MEAN_ELEMENT_THEORY>SGP4</MEAN_ELEMENT_THEORY></metadata><data><meanElements><EPOCH>2025-04-09T22:19:12.053568</EPOCH><MEAN_MOTION>14.38659603</MEAN_MOTION><ECCENTRICITY>.0006322</ECCENTRICITY><INCLINATION>44.9919</INCLINATION><RA_OF_ASC_NODE>136.9348</RA_OF_ASC_NODE><ARG_OF_PERICENTER>297.4379</ARG_OF_PERICENTER><MEAN_ANOMALY>62.5826</MEAN_ANOMALY></meanElements><tleParameters><EPHEMERIS_TYPE>0</EPHEMERIS_TYPE><CLASSIFICATION_TYPE>U</CLASSIFICATION_TYPE><NORAD_CAT_ID>25417</NORAD_CAT_ID><ELEMENT_SET_NO>999</ELEMENT_SET_NO><REV_AT_EPOCH>39442</REV_AT_EPOCH><BSTAR>.92127E-3</BSTAR><MEAN_MOTION_DOT>.2709E-4</MEAN_MOTION_DOT><MEAN_MOTION_DDOT>0</MEAN_MOTION_DDOT></tleParameters></data></segment></body></omm>
<omm id="CCSDS_OMM_VERS" version="2.0">
<header><CREATION_DATE/><ORIGINATOR/></header><body><segment><metadata><OBJECT_NAME>ORBCOMM FM15</OBJECT_NAME><OBJECT_ID>1998-046F</OBJECT_ID><CENTER_NAME>EARTH</CENTER_NAME><REF_FRAME>TEME</REF_FRAME><TIME_SYSTEM>UTC</TIME_SYSTEM><MEAN_ELEMENT_THEORY>SGP4</MEAN_ELEMENT_THEORY></metadata><data><meanElements><EPOCH>2025-04-09T19:40:43.885632</EPOCH><MEAN_MOTION>14.38315338</MEAN_MOTION><ECCENTRICITY>.0005835</ECCENTRICITY><INCLINATION>44.9952</INCLINATION><RA_OF_ASC_NODE>142.3992</RA_OF_ASC_NODE><ARG_OF_PERICENTER>295.7413</ARG_OF_PERICENTER><MEAN_ANOMALY>64.2833</MEAN_ANOMALY></meanElements><tleParameters><EPHEMERIS_TYPE>0</EPHEMERIS_TYPE><CLASSIFICATION_TYPE>U</CLASSIFICATION_TYPE><NORAD_CAT_ID>25418</NORAD_CAT_ID><ELEMENT_SET_NO>999</ELEMENT_SET_NO><REV_AT_EPOCH>39440</REV_AT_EPOCH><BSTAR>.78352E-3</BSTAR><MEAN_MOTION_DOT>.2266E-4</MEAN_MOTION_DOT><MEAN_MOTION_DDOT>0</MEAN_MOTION_DDOT></tleParameters></data></segment></body></omm>
<omm id="CCSDS_OMM_VERS" version="2.0">
<header><CREATION_DATE/><ORIGINATOR/></header><body><segment><metadata><OBJECT_NAME>ORBCOMM FM14</OBJECT_NAME><OBJECT_ID>1998-046G</OBJECT_ID><CENTER_NAME>EARTH</CENTER_NAME><REF_FRAME>TEME</REF_FRAME><TIME_SYSTEM>UTC</TIME_SYSTEM><MEAN_ELEMENT_THEORY>SGP4</MEAN_ELEMENT_THEORY></metadata><data><meanElements><EPOCH>2025-04-09T20:30:37.227456</EPOCH><MEAN_MOTION>14.38656754</MEAN_MOTION><ECCENTRICITY>.0004945</ECCENTRICITY><INCLINATION>44.9940</INCLINATION><RA_OF_ASC_NODE>140.6645</RA_OF_ASC_NODE><ARG_OF_PERICENTER>287.7524</ARG_OF_PERICENTER><MEAN_ANOMALY>72.2785</MEAN_ANOMALY></meanElements><tleParameters><EPHEMERIS_TYPE>0</EPHEMERIS_TYPE><CLASSIFICATION_TYPE>U</CLASSIFICATION_TYPE><NORAD_CAT_ID>25419</NORAD_CAT_ID><ELEMENT_SET_NO>999</ELEMENT_SET_NO><REV_AT_EPOCH>39437</REV_AT_EPOCH><BSTAR>.81048E-3</BSTAR><MEAN_MOTION_DOT>.2366E-4</MEAN_MOTION_DOT><MEAN_MOTION_DDOT>0</MEAN_MOTION_DDOT></tleParameters></data></segment></body></omm>
<omm id="CCSDS_OMM_VERS" version="2.0">
<header><CREATION_DATE/><ORIGINATOR/></header><body><segment><metadata><OBJECT_NAME>ORBCOMM FM13</OBJECT_NAME><OBJECT_ID>1998-046H</OBJECT_ID><CENTER_NAME>EARTH</CENTER_NAME><REF_FRAME>TEME</REF_FRAME><TIME_SYSTEM>UTC</TIME_SYSTEM><MEAN_ELEMENT_THEORY>SGP4</MEAN_ELEMENT_THEORY></metadata><data><meanElements><EPOCH>2025-04-09T20:10:56.203392</EPOCH><MEAN_MOTION>14.37466473</MEAN_MOTION><ECCENTRICITY>.0006986</ECCENTRICITY><INCLINATION>44.9955</INCLINATION><RA_OF_ASC_NODE>148.0527</RA_OF_ASC_NODE><ARG_OF_PERICENTER>283.4719</ARG_OF_PERICENTER><MEAN_ANOMALY>76.5350</MEAN_ANOMALY></meanElements><tleParameters><EPHEMERIS_TYPE>0</EPHEMERIS_TYPE><CLASSIFICATION_TYPE>U</CLASSIFICATION_TYPE><NORAD_CAT_ID>25420</NORAD_CAT_ID><ELEMENT_SET_NO>999</ELEMENT_SET_NO><REV_AT_EPOCH>39340</REV_AT_EPOCH><BSTAR>.69029E-3</BSTAR><MEAN_MOTION_DOT>.1944E-4</MEAN_MOTION_DOT><MEAN_MOTION_DDOT>0</MEAN_MOTION_DDOT></tleParameters></data></segment></body></omm>
<omm id="CCSDS_OMM_VERS" version="2.0">
<header><CREATION_DATE/><ORIGINATOR/></header><body><segment><metadata><OBJECT_NAME>ORBCOMM FM21</OBJECT_NAME><OBJECT_ID>1998-053A</OBJECT_ID><CENTER_NAME>EARTH</CENTER_NAME><REF_FRAME>TEME</REF_FRAME><TIME_SYSTEM>UTC</TIME_SYSTEM><MEAN_ELEMENT_THEORY>SGP4</MEAN_ELEMENT_THEORY></metadata><data><meanElements><EPOCH>2025-04-09T19:58:36.143328</EPOCH><MEAN_MOTION>14.37175996</MEAN_MOTION><ECCENTRICITY>.000255</ECCENTRICITY><INCLINATION>45.0070</INCLINATION><RA_OF_ASC_NODE>233.1596</RA_OF_ASC_NODE><ARG_OF_PERICENTER>221.0519</ARG_OF_PERICENTER><MEAN_ANOMALY>139.0138</MEAN_ANOMALY></meanElements><tleParameters><EPHEMERIS_TYPE>0</EPHEMERIS_TYPE><CLASSIFICATION_TYPE>U</CLASSIFICATION_TYPE><NORAD_CAT_ID>25475</NORAD_CAT_ID><ELEMENT_SET_NO>999</ELEMENT_SET_NO><REV_AT_EPOCH>38741</REV_AT_EPOCH><BSTAR>.82326E-3</BSTAR><MEAN_MOTION_DOT>.233E-4</MEAN_MOTION_DOT><MEAN_MOTION_DDOT>0</MEAN_MOTION_DDOT></tleParameters></data></segment></body></omm>
<omm id="CCSDS_OMM_VERS" version="2.0">
<header><CREATION_DATE/><ORIGINATOR/></header><body><segment><metadata><OBJECT_NAME>ORBCOMM FM22</OBJECT_NAME><OBJECT_ID>1998-053B</OBJECT_ID><CENTER_NAME>EARTH</CENTER_NAME><REF_FRAME>TEME</REF_FRAME><TIME_SYSTEM>UTC</TIME_SYSTEM><MEAN_ELEMENT_THEORY>SGP4</MEAN_ELEMENT_THEORY></metadata><data><meanElements><EPOCH>2025-04-09T15:21:26.811360</EPOCH><MEAN_MOTION>14.38155318</MEAN_MOTION><ECCENTRICITY>.000446</ECCENTRICITY><INCLINATION>45.0063</INCLINATION><RA_OF_ASC_NODE>229.4641</RA_OF_ASC_NODE><ARG_OF_PERICENTER>227.9241</ARG_OF_PERICENTER><MEAN_ANOMALY>132.1228</MEAN_ANOMALY></meanElements><tleParameters><EPHEMERIS_TYPE>0</EPHEMERIS_TYPE><CLASSIFICATION_TYPE>U</CLASSIFICATION_TYPE><NORAD_CAT_ID>25476</NORAD_CAT_ID><ELEMENT_SET_NO>999</ELEMENT_SET_NO><REV_AT_EPOCH>38776</REV_AT_EPOCH><BSTAR>.93749E-3</BSTAR><MEAN_MOTION_DOT>.273E-4</MEAN_MOTION_DOT><MEAN_MOTION_DDOT>0</MEAN_MOTION_DDOT></tleParameters></data></segment></body></omm>
<omm id="CCSDS_OMM_VERS" version="2.0">
<header><CREATION_DATE/><ORIGINATOR/></header><body><segment><metadata><OBJECT_NAME>ORBCOMM FM23</OBJECT_NAME><OBJECT_ID>1998-053C</OBJECT_ID><CENTER_NAME>EARTH</CENTER_NAME><REF_FRAME>TEME</REF_FRAME><TIME_SYSTEM>UTC</TIME_SYSTEM><MEAN_ELEMENT_THEORY>SGP4</MEAN_ELEMENT_THEORY></metadata><data><meanElements><EPOCH>2025-04-09T16:51:22.087872</EPOCH><MEAN_MOTION>14.37332244</MEAN_MOTION><ECCENTRICITY>.0003579</ECCENTRICITY><INCLINATION>45.0069</INCLINATION><RA_OF_ASC_NODE>235.9898</RA_OF_ASC_NODE><ARG_OF_PERICENTER>221.7392</ARG_OF_PERICENTER><MEAN_ANOMALY>138.3184</MEAN_ANOMALY></meanElements><tleParameters><EPHEMERIS_TYPE>0</EPHEMERIS_TYPE><CLASSIFICATION_TYPE>U</CLASSIFICATION_TYPE><NORAD_CAT_ID>25477</NORAD_CAT_ID><ELEMENT_SET_NO>999</ELEMENT_SET_NO><REV_AT_EPOCH>38754</REV_AT_EPOCH><BSTAR>.88494E-3</BSTAR><MEAN_MOTION_DOT>.2524E-4</MEAN_MOTION_DOT><MEAN_MOTION_DDOT>0</MEAN_MOTION_DDOT></tleParameters></data></segment></body></omm>

</ndm>
